[{"OBJECT_NAME":"STARLINK-30700","OBJECT_ID":"2023-148U","EPOCH":"2026-03-19T21:50:50.239680","MEAN_MOTION":15.30195397,"ECCENTRICITY":0.00010593,"INCLINATION":53.1607,"RA_OF_ASC_NODE":326.7348,"ARG_OF_PERICENTER":75.168,"MEAN_ANOMALY":284.9438,"EPHEMERIS_TYPE":0,"CLASSIFICATION_TYPE":"U","NORAD_CAT_ID":57953,"ELEMENT_SET_NO":999,"REV_AT_EPOCH":14012,"BSTAR":1.9194153e-5,"MEAN_MOTION_DOT":2.09e-6,"MEAN_MOTION_DDOT":0},{"OBJECT_NAME":"STARLINK-30703","OBJECT_ID":"2023-148V","EPOCH":"2026-03-19T21:12:54.178560","MEAN_MOTION":15.30189425,"ECCENTRICITY":0.00013746,"INCLINATION":53.1626,"RA_OF_ASC_NODE":326.8209,"ARG_OF_PERICENTER":85.9773,"MEAN_ANOMALY":274.1385,"EPHEMERIS_TYPE":0,"CLASSIFICATION_TYPE":"U","NORAD_CAT_ID":57954,"ELEMENT_SET_NO":999,"REV_AT_EPOCH":14012,"BSTAR":2.3782533e-5,"MEAN_MOTION_DOT":3.45e-6,"MEAN_MOTION_DDOT":0},{"OBJECT_NAME":"STARLINK-30702","OBJECT_ID":"2023-148W","EPOCH":"2026-03-19T22:53:01.004640","MEAN_MOTION":15.30208869,"ECCENTRICITY":0.00010465,"INCLINATION":53.1612,"RA_OF_ASC_NODE":326.5349,"ARG_OF_PERICENTER":91.6211,"MEAN_ANOMALY":268.491,"EPHEMERIS_TYPE":0,"CLASSIFICATION_TYPE":"U","NORAD_CAT_ID":57955,"ELEMENT_SET_NO":999,"REV_AT_EPOCH":14013,"BSTAR":9.7944474e-5,"MEAN_MOTION_DOT":2.544e-5,"MEAN_MOTION_DDOT":0},{"OBJECT_NAME":"STARLINK-30396","OBJECT_ID":"2023-151A","EPOCH":"2026-03-19T21:28:43.235040","MEAN_MOTION":15.27575134,"ECCENTRICITY":0.00014911,"INCLINATION":42.9991,"RA_OF_ASC_NODE":278.6781,"ARG_OF_PERICENTER":258.1863,"MEAN_ANOMALY":101.8821,"EPHEMERIS_TYPE":0,"CLASSIFICATION_TYPE":"U","NORAD_CAT_ID":57964,"ELEMENT_SET_NO":999,"REV_AT_EPOCH":13732,"BSTAR":8.3518982e-5,"MEAN_MOTION_DOT":2.036e-5,"MEAN_MOTION_DDOT":0},{"OBJECT_NAME":"STARLINK-30524","OBJECT_ID":"2023-151B","EPOCH":"2026-03-19T22:53:35.816928","MEAN_MOTION":15.2757835,"ECCENTRICITY":0.00015304,"INCLINATION":43.0022,"RA_OF_ASC_NODE":278.2668,"ARG_OF_PERICENTER":261.6943,"MEAN_ANOMALY":98.3735,"EPHEMERIS_TYPE":0,"CLASSIFICATION_TYPE":"U","NORAD_CAT_ID":57965,"ELEMENT_SET_NO":999,"REV_AT_EPOCH":13733,"BSTAR":6.351603e-5,"MEAN_MOTION_DOT":1.486e-5,"MEAN_MOTION_DDOT":0},{"OBJECT_NAME":"STARLINK-30521","OBJECT_ID":"2023-151C","EPOCH":"2026-03-19T22:05:30.340320","MEAN_MOTION":15.27574074,"ECCENTRICITY":0.00015272,"INCLINATION":43.0011,"RA_OF_ASC_NODE":278.0015,"ARG_OF_PERICENTER":283.4904,"MEAN_ANOMALY":76.5778,"EPHEMERIS_TYPE":0,"CLASSIFICATION_TYPE":"U","NORAD_CAT_ID":57966,"ELEMENT_SET_NO":999,"REV_AT_EPOCH":13733,"BSTAR":0.0001401691,"MEAN_MOTION_DOT":3.596e-5,"MEAN_MOTION_DDOT":0},{"OBJECT_NAME":"STARLINK-30528","OBJECT_ID":"2023-151D","EPOCH":"2026-03-19T14:20:15.544032","MEAN_MOTION":15.27570292,"ECCENTRICITY":0.00013483,"INCLINATION":43.0023,"RA_OF_ASC_NODE":279.8768,"ARG_OF_PERICENTER":281.0566,"MEAN_ANOMALY":79.0134,"EPHEMERIS_TYPE":0,"CLASSIFICATION_TYPE":"U","NORAD_CAT_ID":57967,"ELEMENT_SET_NO":999,"REV_AT_EPOCH":13728,"BSTAR":0.00014255026,"MEAN_MOTION_DOT":3.661e-5,"MEAN_MOTION_DDOT":0},{"OBJECT_NAME":"STARLINK-30495","OBJECT_ID":"2023-151E","EPOCH":"2026-03-19T22:31:23.682720","MEAN_MOTION":15.27574592,"ECCENTRICITY":0.00012441,"INCLINATION":43.0036,"RA_OF_ASC_NODE":278.1403,"ARG_OF_PERICENTER":274.9365,"MEAN_ANOMALY":85.1345,"EPHEMERIS_TYPE":0,"CLASSIFICATION_TYPE":"U","NORAD_CAT_ID":57968,"ELEMENT_SET_NO":999,"REV_AT_EPOCH":13733,"BSTAR":3.6993015e-5,"MEAN_MOTION_DOT":7.56e-6,"MEAN_MOTION_DDOT":0},{"OBJECT_NAME":"STARLINK-30494","OBJECT_ID":"2023-151G","EPOCH":"2026-03-19T22:00:00.999936","MEAN_MOTION":15.27589871,"ECCENTRICITY":0.00018302,"INCLINATION":43.0018,"RA_OF_ASC_NODE":132.788,"ARG_OF_PERICENTER":265.5513,"MEAN_ANOMALY":277.0867,"EPHEMERIS_TYPE":0,"CLASSIFICATION_TYPE":"U","NORAD_CAT_ID":57970,"ELEMENT_SET_NO":999,"REV_AT_EPOCH":589,"BSTAR":-0.00053870703,"MEAN_MOTION_DOT":-0.00015061,"MEAN_MOTION_DDOT":0},{"OBJECT_NAME":"STARLINK-30498","OBJECT_ID":"2023-151H","EPOCH":"2026-03-19T22:25:50.182176","MEAN_MOTION":15.27576869,"ECCENTRICITY":0.00015713,"INCLINATION":43.0039,"RA_OF_ASC_NODE":278.0977,"ARG_OF_PERICENTER":259.12,"MEAN_ANOMALY":100.9475,"EPHEMERIS_TYPE":0,"CLASSIFICATION_TYPE":"U","NORAD_CAT_ID":57971,"ELEMENT_SET_NO":999,"REV_AT_EPOCH":13733,"BSTAR":6.106439e-5,"MEAN_MOTION_DOT":1.418e-5,"MEAN_MOTION_DDOT":0},{"OBJECT_NAME":"STARLINK-30505","OBJECT_ID":"2023-151J","EPOCH":"2026-03-19T21:24:59.452128","MEAN_MOTION":15.27600851,"ECCENTRICITY":0.00013307,"INCLINATION":42.9988,"RA_OF_ASC_NODE":278.6374,"ARG_OF_PERICENTER":261.3385,"MEAN_ANOMALY":98.7316,"EPHEMERIS_TYPE":0,"CLASSIFICATION_TYPE":"U","NORAD_CAT_ID":57972,"ELEMENT_SET_NO":999,"REV_AT_EPOCH":13732,"BSTAR":0.001076609,"MEAN_MOTION_DOT":0.00029501,"MEAN_MOTION_DDOT":0},{"OBJECT_NAME":"STARLINK-30502","OBJECT_ID":"2023-151K","EPOCH":"2026-03-19T20:46:07.999104","MEAN_MOTION":15.2757595,"ECCENTRICITY":0.00010438,"INCLINATION":43.0021,"RA_OF_ASC_NODE":278.4394,"ARG_OF_PERICENTER":273.5888,"MEAN_ANOMALY":86.4844,"EPHEMERIS_TYPE":0,"CLASSIFICATION_TYPE":"U","NORAD_CAT_ID":57973,"ELEMENT_SET_NO":999,"REV_AT_EPOCH":13732,"BSTAR":3.7388205e-5,"MEAN_MOTION_DOT":7.67e-6,"MEAN_MOTION_DDOT":0},{"OBJECT_NAME":"STARLINK-30489","OBJECT_ID":"2023-151L","EPOCH":"2026-03-19T22:27:41.493888","MEAN_MOTION":15.27578596,"ECCENTRICITY":0.00014899,"INCLINATION":43.0029,"RA_OF_ASC_NODE":278.1078,"ARG_OF_PERICENTER":254.142,"MEAN_ANOMALY":105.9267,"EPHEMERIS_TYPE":0,"CLASSIFICATION_TYPE":"U","NORAD_CAT_ID":57974,"ELEMENT_SET_NO":999,"REV_AT_EPOCH":13733,"BSTAR":-1.0182768e-5,"MEAN_MOTION_DOT":-5.42e-6,"MEAN_MOTION_DDOT":0},{"OBJECT_NAME":"STARLINK-30503","OBJECT_ID":"2023-151M","EPOCH":"2026-03-19T21:34:13.850688","MEAN_MOTION":15.27581174,"ECCENTRICITY":0.00013355,"INCLINATION":42.9998,"RA_OF_ASC_NODE":278.6613,"ARG_OF_PERICENTER":263.0379,"MEAN_ANOMALY":97.0321,"EPHEMERIS_TYPE":0,"CLASSIFICATION_TYPE":"U","NORAD_CAT_ID":57975,"ELEMENT_SET_NO":999,"REV_AT_EPOCH":13732,"BSTAR":7.0774961e-5,"MEAN_MOTION_DOT":1.686e-5,"MEAN_MOTION_DDOT":0},{"OBJECT_NAME":"STARLINK-30512","OBJECT_ID":"2023-151N","EPOCH":"2026-03-19T22:16:34.458240","MEAN_MOTION":15.27579303,"ECCENTRICITY":0.00010124,"INCLINATION":43.0002,"RA_OF_ASC_NODE":277.9945,"ARG_OF_PERICENTER":273.8523,"MEAN_ANOMALY":86.2213,"EPHEMERIS_TYPE":0,"CLASSIFICATION_TYPE":"U","NORAD_CAT_ID":57976,"ELEMENT_SET_NO":999,"REV_AT_EPOCH":13733,"BSTAR":1.6517349e-5,"MEAN_MOTION_DOT":1.93e-6,"MEAN_MOTION_DDOT":0},{"OBJECT_NAME":"STARLINK-30509","OBJECT_ID":"2023-151P","EPOCH":"2026-03-19T07:14:56.101344","MEAN_MOTION":15.27583834,"ECCENTRICITY":9.696e-5,"INCLINATION":42.9994,"RA_OF_ASC_NODE":296.3782,"ARG_OF_PERICENTER":267.9148,"MEAN_ANOMALY":92.1592,"EPHEMERIS_TYPE":0,"CLASSIFICATION_TYPE":"U","NORAD_CAT_ID":57977,"ELEMENT_SET_NO":999,"REV_AT_EPOCH":13706,"BSTAR":-1.530048e-6,"MEAN_MOTION_DOT":-3.04e-6,"MEAN_MOTION_DDOT":0}]
