STARLINK-30700          
1 57953U 23148U   26078.91030370  .00000209  00000+0  19194-4 0  9991
2 57953  53.1607 326.7348 0001059  75.1680 284.9438 15.30195397140127
STARLINK-30703          
1 57954U 23148V   26078.88396040  .00000345  00000+0  23783-4 0  9997
2 57954  53.1626 326.8209 0001374  85.9773 274.1385 15.30189425140125
STARLINK-30702          
1 57955U 23148W   26078.95348385  .00002544  00000+0  97944-4 0  9998
2 57955  53.1612 326.5349 0001046  91.6211 268.4910 15.30208869140135
STARLINK-30396          
1 57964U 23151A   26078.89494485  .00002036  00000+0  83519-4 0  9997
2 57964  42.9991 278.6781 0001491 258.1863 101.8821 15.27575134137321
STARLINK-30524          
1 57965U 23151B   26078.95388677  .00001486  00000+0  63516-4 0  9993
2 57965  43.0022 278.2668 0001530 261.6943  98.3735 15.27578350137339
STARLINK-30521          
1 57966U 23151C   26078.92049005  .00003596  00000+0  14017-3 0  9995
2 57966  43.0011 278.0015 0001527 283.4904  76.5778 15.27574074137331
STARLINK-30528          
1 57967U 23151D   26078.59740213  .00003661  00000+0  14255-3 0  9995
2 57967  43.0023 279.8768 0001348 281.0566  79.0134 15.27570292137284
STARLINK-30495          
1 57968U 23151E   26078.93846855  .00000756  00000+0  36993-4 0  9999
2 57968  43.0036 278.1403 0001244 274.9365  85.1345 15.27574592137335
STARLINK-30494          
1 57970U 23151G   26078.91667824 -.00015061  00000+0 -53871-3 0  9997
2 57970  43.0018 132.7880 0001830 265.5513 277.0867 15.27589871  5896
STARLINK-30498          
1 57971U 23151H   26078.93460859  .00001418  00000+0  61064-4 0  9992
2 57971  43.0039 278.0977 0001571 259.1200 100.9475 15.27576869137332
STARLINK-30505          
1 57972U 23151J   26078.89235477  .00029501  00000+0  10766-2 0  9998
2 57972  42.9988 278.6374 0001330 261.3385  98.7316 15.27600851137329
STARLINK-30502          
1 57973U 23151K   26078.86537036  .00000767  00000+0  37388-4 0  9996
2 57973  43.0021 278.4394 0001043 273.5888  86.4844 15.27575950137325
STARLINK-30489          
1 57974U 23151L   26078.93589692 -.00000542  00000+0 -10183-4 0  9997
2 57974  43.0029 278.1078 0001489 254.1420 105.9267 15.27578596137337
STARLINK-30503          
1 57975U 23151M   26078.89877142  .00001686  00000+0  70775-4 0  9994
2 57975  42.9998 278.6613 0001335 263.0379  97.0321 15.27581174137320
STARLINK-30512          
1 57976U 23151N   26078.92817660  .00000193  00000+0  16517-4 0  9994
2 57976  43.0002 277.9945 0001012 273.8523  86.2213 15.27579303137333
STARLINK-30509          
1 57977U 23151P   26078.30203821 -.00000304  00000+0 -15300-5 0  9991
2 57977  42.9994 296.3782 0000969 267.9148  92.1592 15.27583834137063
